start=new Date('2022-05-10T00:00:00.000Z').valueOf();
sats=[{"COUNTRY_CODE":"US","EPOCH":"2022-05-09T06:17:39.175008","OBJECT_ID":"2020-088BM","TLE_LINE2":"2 47181  53.0561  88.3888 0002546  52.8036 307.3185 15.06407390 81042","SITE":"AFETR","OBJECT_NAME":"STARLINK-1927","LAUNCH_DATE":"2020-11-25","REF_FRAME":"TEME","PERIOD":"95.592","MEAN_MOTION_DOT":"0.00001510","RCS_SIZE":"LARGE","GP_ID":"203102389","MEAN_ELEMENT_THEORY":"SGP4","CLASSIFICATION_TYPE":"U","DECAY_DATE":null,"OBJECT_TYPE":"PAYLOAD","ARG_OF_PERICENTER":"52.8036","MEAN_MOTION":"15.06407390","ELEMENT_SET_NO":"999","MEAN_MOTION_DDOT":"0.0000000000000","SEMIMAJOR_AXIS":"6925.326","PERIAPSIS":"545.428","BSTAR":"0.00012028000000","ECCENTRICITY":"0.00025460","INCLINATION":"53.0561","RA_OF_ASC_NODE":"88.3888","TLE_LINE1":"1 47181U 20088BM  22129.26225897  .00001510  00000-0  12028-3 0  9999","EPHEMERIS_TYPE":"0","TIME_SYSTEM":"UTC","MEAN_ANOMALY":"307.3185","CENTER_NAME":"EARTH","FILE":"3437431","APOAPSIS":"548.954","NORAD_CAT_ID":"47181","REV_AT_EPOCH":"8104"},{"ELEMENT_SET_NO":"999","MEAN_MOTION":"15.76721902","ARG_OF_PERICENTER":"20.9400","OBJECT_TYPE":"PAYLOAD","DECAY_DATE":null,"GP_ID":"203140714","CLASSIFICATION_TYPE":"U","MEAN_ELEMENT_THEORY":"SGP4","PERIOD":"91.329","RCS_SIZE":"LARGE","MEAN_MOTION_DOT":"0.00001794","TLE_LINE2":"2 47349  53.0351 108.5950 0003045  20.9400 339.1743 15.76721902 73674","REF_FRAME":"TEME","SITE":"AFETR","LAUNCH_DATE":"2021-01-20","OBJECT_NAME":"STARLINK-1952","OBJECT_ID":"2021-005A","EPOCH":"2022-05-09T15:22:16.385088","COUNTRY_CODE":"US","APOAPSIS":"341.783","NORAD_CAT_ID":"47349","REV_AT_EPOCH":"7367","FILE":"3438010","TIME_SYSTEM":"UTC","EPHEMERIS_TYPE":"0","CENTER_NAME":"EARTH","MEAN_ANOMALY":"339.1743","RA_OF_ASC_NODE":"108.5950","TLE_LINE1":"1 47349U 21005A   22129.64046742  .00001794  00000-0  14983-4 0  9994","INCLINATION":"53.0351","ECCENTRICITY":"0.00030450","SEMIMAJOR_AXIS":"6717.873","PERIAPSIS":"337.692","BSTAR":"0.00001498300000","MEAN_MOTION_DDOT":"0.0000000000000"},{"TLE_LINE2":"2 47350  53.0572 227.0195 0001667  55.4926 304.6220 15.06396961 72013","SITE":"AFETR","OBJECT_NAME":"STARLINK-2011","LAUNCH_DATE":"2021-01-20","REF_FRAME":"TEME","OBJECT_ID":"2021-005B","COUNTRY_CODE":"US","EPOCH":"2022-05-09T13:35:32.893152","ARG_OF_PERICENTER":"55.4926","MEAN_MOTION":"15.06396961","ELEMENT_SET_NO":"999","OBJECT_TYPE":"PAYLOAD","DECAY_DATE":null,"GP_ID":"203103656","MEAN_ELEMENT_THEORY":"SGP4","CLASSIFICATION_TYPE":"U","PERIOD":"95.592","MEAN_MOTION_DOT":"0.00000765","RCS_SIZE":"LARGE","INCLINATION":"53.0572","ECCENTRICITY":"0.00016670","SEMIMAJOR_AXIS":"6925.358","PERIAPSIS":"546.068","BSTAR":"0.00007026800000","MEAN_MOTION_DDOT":"0.0000000000000","APOAPSIS":"548.377","NORAD_CAT_ID":"47350","REV_AT_EPOCH":"7201","FILE":"3437431","EPHEMERIS_TYPE":"0","TIME_SYSTEM":"UTC","MEAN_ANOMALY":"304.6220","CENTER_NAME":"EARTH","RA_OF_ASC_NODE":"227.0195","TLE_LINE1":"1 47350U 21005B   22129.56635293  .00000765  00000-0  70268-4 0  9997"},{"TLE_LINE2":"2 47351  53.0552 185.6829 0001528  68.5968 291.5184 15.06397305 72614","REF_FRAME":"TEME","SITE":"AFETR","LAUNCH_DATE":"2021-01-20","OBJECT_NAME":"STARLINK-2017","EPOCH":"2022-05-09T20:40:09.933312","COUNTRY_CODE":"US","OBJECT_ID":"2021-005C","DECAY_DATE":null,"OBJECT_TYPE":"PAYLOAD","ELEMENT_SET_NO":"999","ARG_OF_PERICENTER":"68.5968","MEAN_MOTION":"15.06397305","PERIOD":"95.592","RCS_SIZE":"LARGE","MEAN_MOTION_DOT":"-0.00000098","GP_ID":"203141714","CLASSIFICATION_TYPE":"U","MEAN_ELEMENT_THEORY":"SGP4","ECCENTRICITY":"0.00015280","INCLINATION":"53.0552","MEAN_MOTION_DDOT":"0.0000000000000","PERIAPSIS":"546.164","SEMIMAJOR_AXIS":"6925.357","BSTAR":"0.00001232800000","FILE":"3438010","NORAD_CAT_ID":"47351","APOAPSIS":"548.280","REV_AT_EPOCH":"7261","RA_OF_ASC_NODE":"185.6829","TLE_LINE1":"1 47351U 21005C   22129.86122608 -.00000098  00000-0  12328-4 0  9995","TIME_SYSTEM":"UTC","EPHEMERIS_TYPE":"0","CENTER_NAME":"EARTH","MEAN_ANOMALY":"291.5184"},{"EPOCH":"2022-05-09T17:55:36.707232","COUNTRY_CODE":"US","OBJECT_ID":"2021-005D","REF_FRAME":"TEME","SITE":"AFETR","LAUNCH_DATE":"2021-01-20","OBJECT_NAME":"STARLINK-2034","TLE_LINE2":"2 47352  53.0552 226.2148 0001813  50.3607 309.7542 15.06407520 72034","MEAN_MOTION_DOT":"0.00001924","RCS_SIZE":"LARGE","PERIOD":"95.592","CLASSIFICATION_TYPE":"U","MEAN_ELEMENT_THEORY":"SGP4","GP_ID":"203142451","OBJECT_TYPE":"PAYLOAD","DECAY_DATE":null,"ELEMENT_SET_NO":"999","MEAN_MOTION":"15.06407520","ARG_OF_PERICENTER":"50.3607","MEAN_MOTION_DDOT":"0.0000000000000","BSTAR":"0.00014798000000","PERIAPSIS":"545.935","SEMIMAJOR_AXIS":"6925.326","ECCENTRICITY":"0.00018130","INCLINATION":"53.0552","TLE_LINE1":"1 47352U 21005D   22129.74695263  .00001924  00000-0  14798-3 0  9995","RA_OF_ASC_NODE":"226.2148","CENTER_NAME":"EARTH","MEAN_ANOMALY":"309.7542","TIME_SYSTEM":"UTC","EPHEMERIS_TYPE":"0","FILE":"3438010","REV_AT_EPOCH":"7203","APOAPSIS":"548.446","NORAD_CAT_ID":"47352"},{"OBJECT_ID":"2021-005E","COUNTRY_CODE":"US","EPOCH":"2022-05-09T20:02:20.855904","SITE":"AFETR","OBJECT_NAME":"STARLINK-2045","LAUNCH_DATE":"2021-01-20","REF_FRAME":"TEME","TLE_LINE2":"2 47353  53.0552 170.8160 0001931  44.4016 315.7127 15.06402713 72824","MEAN_ELEMENT_THEORY":"SGP4","CLASSIFICATION_TYPE":"U","GP_ID":"203141213","MEAN_MOTION_DOT":"0.00002533","RCS_SIZE":"LARGE","PERIOD":"95.592","ARG_OF_PERICENTER":"44.4016","MEAN_MOTION":"15.06402713","ELEMENT_SET_NO":"999","OBJECT_TYPE":"PAYLOAD","DECAY_DATE":null,"BSTAR":"0.00018889000000","SEMIMAJOR_AXIS":"6925.340","PERIAPSIS":"545.868","MEAN_MOTION_DDOT":"0.0000000000000","INCLINATION":"53.0552","ECCENTRICITY":"0.00019310","MEAN_ANOMALY":"315.7127","CENTER_NAME":"EARTH","EPHEMERIS_TYPE":"0","TIME_SYSTEM":"UTC","TLE_LINE1":"1 47353U 21005E   22129.83496361  .00002533  00000-0  18889-3 0  9996","RA_OF_ASC_NODE":"170.8160","REV_AT_EPOCH":"7282","NORAD_CAT_ID":"47353","APOAPSIS":"548.543","FILE":"3438010"},{"INCLINATION":"53.0521","ECCENTRICITY":"0.00018060","PERIAPSIS":"545.941","SEMIMAJOR_AXIS":"6925.327","BSTAR":"0.00027064000000","MEAN_MOTION_DDOT":"0.0000000000000","NORAD_CAT_ID":"47354","APOAPSIS":"548.443","REV_AT_EPOCH":"7250","FILE":"3438010","EPHEMERIS_TYPE":"0","TIME_SYSTEM":"UTC","MEAN_ANOMALY":"311.6947","CENTER_NAME":"EARTH","RA_OF_ASC_NODE":"191.9429","TLE_LINE1":"1 47354U 21005F   22129.58248002  .00003753  00000-0  27064-3 0  9996","TLE_LINE2":"2 47354  53.0521 191.9429 0001806  48.4197 311.6947 15.06407049 72505","OBJECT_NAME":"STARLINK-2046","SITE":"AFETR","LAUNCH_DATE":"2021-01-20","REF_FRAME":"TEME","OBJECT_ID":"2021-005F","COUNTRY_CODE":"US","EPOCH":"2022-05-09T13:58:46.273728","MEAN_MOTION":"15.06407049","ARG_OF_PERICENTER":"48.4197","ELEMENT_SET_NO":"999","OBJECT_TYPE":"PAYLOAD","DECAY_DATE":null,"GP_ID":"203141460","MEAN_ELEMENT_THEORY":"SGP4","CLASSIFICATION_TYPE":"U","PERIOD":"95.592","RCS_SIZE":"LARGE","MEAN_MOTION_DOT":"0.00003753"},{"MEAN_MOTION_DDOT":"0.0000000000000","BSTAR":"0.00011578000000","PERIAPSIS":"546.104","SEMIMAJOR_AXIS":"6925.374","ECCENTRICITY":"0.00016390","INCLINATION":"53.0497","TLE_LINE1":"1 47355U 21005G   22129.53779064  .00001443  00000-0  11578-3 0  9996","RA_OF_ASC_NODE":"177.1554","MEAN_ANOMALY":"314.4300","CENTER_NAME":"EARTH","EPHEMERIS_TYPE":"0","TIME_SYSTEM":"UTC","FILE":"3438010","REV_AT_EPOCH":"7270","APOAPSIS":"548.374","NORAD_CAT_ID":"47355","COUNTRY_CODE":"US","EPOCH":"2022-05-09T12:54:25.111296","OBJECT_ID":"2021-005G","OBJECT_NAME":"STARLINK-2047","SITE":"AFETR","LAUNCH_DATE":"2021-01-20","REF_FRAME":"TEME","TLE_LINE2":"2 47355  53.0497 177.1554 0001639  45.6823 314.4300 15.06391633 72709","RCS_SIZE":"LARGE","MEAN_MOTION_DOT":"0.00001443","PERIOD":"95.593","MEAN_ELEMENT_THEORY":"SGP4","CLASSIFICATION_TYPE":"U","GP_ID":"203142214","OBJECT_TYPE":"PAYLOAD","DECAY_DATE":null,"ARG_OF_PERICENTER":"45.6823","MEAN_MOTION":"15.06391633","ELEMENT_SET_NO":"999"},{"MEAN_MOTION":"15.06399616","ARG_OF_PERICENTER":"56.6104","ELEMENT_SET_NO":"999","DECAY_DATE":null,"OBJECT_TYPE":"PAYLOAD","GP_ID":"203102657","MEAN_ELEMENT_THEORY":"SGP4","CLASSIFICATION_TYPE":"U","PERIOD":"95.592","MEAN_MOTION_DOT":"0.00000510","RCS_SIZE":"LARGE","TLE_LINE2":"2 47356  53.0523 197.5429 0001691  56.6104 303.5047 15.06399616 72413","SITE":"AFETR","LAUNCH_DATE":"2021-01-20","OBJECT_NAME":"STARLINK-2049","REF_FRAME":"TEME","OBJECT_ID":"2021-005H","COUNTRY_CODE":"US","EPOCH":"2022-05-09T10:49:40.632672","NORAD_CAT_ID":"47356","APOAPSIS":"548.386","REV_AT_EPOCH":"7241","FILE":"3437431","EPHEMERIS_TYPE":"0","TIME_SYSTEM":"UTC","MEAN_ANOMALY":"303.5047","CENTER_NAME":"EARTH","RA_OF_ASC_NODE":"197.5429","TLE_LINE1":"1 47356U 21005H   22129.45116473  .00000510  00000-0  53130-4 0  9992","INCLINATION":"53.0523","ECCENTRICITY":"0.00016910","PERIAPSIS":"546.044","SEMIMAJOR_AXIS":"6925.350","BSTAR":"0.00005313000000","MEAN_MOTION_DDOT":"0.0000000000000"},{"SITE":"AFETR","LAUNCH_DATE":"2021-01-20","OBJECT_NAME":"STARLINK-2050","REF_FRAME":"TEME","TLE_LINE2":"2 47357  53.0553 226.5959 0001690  62.8053 297.3108 15.06398222 72026","OBJECT_ID":"2021-005J","COUNTRY_CODE":"US","EPOCH":"2022-05-09T15:48:14.774112","ARG_OF_PERICENTER":"62.8053","MEAN_MOTION":"15.06398222","ELEMENT_SET_NO":"999","DECAY_DATE":null,"OBJECT_TYPE":"PAYLOAD","MEAN_ELEMENT_THEORY":"SGP4","CLASSIFICATION_TYPE":"U","GP_ID":"203140715","MEAN_MOTION_DOT":"0.00000419","RCS_SIZE":"LARGE","PERIOD":"95.592","INCLINATION":"53.0553","ECCENTRICITY":"0.00016900","BSTAR":"0.00004701100000","SEMIMAJOR_AXIS":"6925.354","PERIAPSIS":"546.049","MEAN_MOTION_DDOT":"0.0000000000000","REV_AT_EPOCH":"7202","APOAPSIS":"548.389","NORAD_CAT_ID":"47357","FILE":"3438010","MEAN_ANOMALY":"297.3108","CENTER_NAME":"EARTH","EPHEMERIS_TYPE":"0","TIME_SYSTEM":"UTC","TLE_LINE1":"1 47357U 21005J   22129.65850433  .00000419  00000-0  47011-4 0  9995","RA_OF_ASC_NODE":"226.5959"}];
